{
    "links": {
        "self": "http://www.neowsapp.com/rest/v1/neo/3781232?api_key=iIulBulltgU6a56xZRHN4H3l9WmuAYTsLGpBGhQ2"
    },
    "id": "3781232",
    "neo_reference_id": "3781232",
    "name": "(2017 QU32)",
    "designation": "2017 QU32",
    "nasa_jpl_url": "http://ssd.jpl.nasa.gov/sbdb.cgi?sstr=3781232",
    "absolute_magnitude_h": 26.6,
    "estimated_diameter": {
        "kilometers": {
            "estimated_diameter_min": 0.0127219879,
            "estimated_diameter_max": 0.0284472297
        },
        "meters": {
            "estimated_diameter_min": 12.7219878539,
            "estimated_diameter_max": 28.4472296503
        },
        "miles": {
            "estimated_diameter_min": 0.0079050743,
            "estimated_diameter_max": 0.0176762835
        },
        "feet": {
            "estimated_diameter_min": 41.7388066307,
            "estimated_diameter_max": 93.330808926
        }
    },
    "is_potentially_hazardous_asteroid": false,
    "close_approach_data": [
        {
            "close_approach_date": "2017-08-23",
            "close_approach_date_full": "2017-Aug-23 22:36",
            "epoch_date_close_approach": 1503527760000,
            "relative_velocity": {
                "kilometers_per_second": "15.6604882099",
                "kilometers_per_hour": "56377.7575557761",
                "miles_per_hour": "35030.9460768099"
            },
            "miss_distance": {
                "astronomical": "0.0128135883",
                "lunar": "4.9844858487",
                "kilometers": "1916885.516736921",
                "miles": "1191097.4281786698"
            },
            "orbiting_body": "Earth"
        },
        {
            "close_approach_date": "2029-09-11",
            "close_approach_date_full": "2029-Sep-11 03:34",
            "epoch_date_close_approach": 1883792040000,
            "relative_velocity": {
                "kilometers_per_second": "23.733278874",
                "kilometers_per_hour": "85439.8039464425",
                "miles_per_hour": "53088.971513277"
            },
            "miss_distance": {
                "astronomical": "0.278116973",
                "lunar": "108.187502497",
                "kilometers": "41605706.77164751",
                "miles": "25852587.387495238"
            },
            "orbiting_body": "Earth"
        },
        {
            "close_approach_date": "2032-09-15",
            "close_approach_date_full": "2032-Sep-15 05:08",
            "epoch_date_close_approach": 1978837680000,
            "relative_velocity": {
                "kilometers_per_second": "26.0746430529",
                "kilometers_per_hour": "93868.7149904526",
                "miles_per_hour": "58326.3690450398"
            },
            "miss_distance": {
                "astronomical": "0.358061398",
                "lunar": "139.285883822",
                "kilometers": "53565222.47002226",
                "miles": "33283885.848576788"
            },
            "orbiting_body": "Earth"
        },
        {
            "close_approach_date": "2035-09-19",
            "close_approach_date_full": "2035-Sep-19 17:30",
            "epoch_date_close_approach": 2073835800000,
            "relative_velocity": {
                "kilometers_per_second": "28.2825364675",
                "kilometers_per_hour": "101817.1312831307",
                "miles_per_hour": "63265.2058242319"
            },
            "miss_distance": {
                "astronomical": "0.4357861504",
                "lunar": "169.5208125056",
                "kilometers": "65192679.875339648",
                "miles": "40508852.8540692224"
            },
            "orbiting_body": "Earth"
        }
    ],
    "orbital_data": {
        "orbit_id": "2",
        "orbit_determination_date": "2017-08-31 06:18:06",
        "first_observation_date": "2017-08-28",
        "last_observation_date": "2017-08-31",
        "data_arc_in_days": 3,
        "observations_used": 37,
        "orbit_uncertainty": "8",
        "minimum_orbit_intersection": ".0127807",
        "jupiter_tisserand_invariant": "3.491",
        "epoch_osculation": "2457994.5",
        "eccentricity": ".6118464910359485",
        "semi_major_axis": "2.082295015230532",
        "inclination": "7.561727159194516",
        "ascending_node_longitude": "335.8836403022609",
        "orbital_period": "1097.518415457329",
        "perihelion_distance": ".8082501168600842",
        "perihelion_argument": "292.3723864944037",
        "aphelion_distance": "3.35633991360098",
        "perihelion_time": "2457946.905917239391",
        "mean_anomaly": "15.6114645116726",
        "mean_motion": ".3280127193583264",
        "equinox": "J2000",
        "orbit_class": {
            "orbit_class_type": "APO",
            "orbit_class_description": "Near-Earth asteroid orbits which cross the Earth’s orbit similar to that of 1862 Apollo",
            "orbit_class_range": "a (semi-major axis) > 1.0 AU; q (perihelion) < 1.017 AU"
        }
    },
    "is_sentry_object": false
}